*******************************************************************************
Ephemeris / WWW_USER Wed Mar 14 15:41:24 2018 Pasadena, USA      / Horizons    
*******************************************************************************
Target body name: Io (501)                        {source: jup310}
Center body name: Solar System Barycenter (0)     {source: DE431mx}
Center-site name: BODY CENTER
*******************************************************************************
Start time      : A.D. 2000-Jan-01 00:00:00.0000 TDB
Stop  time      : A.D. 2001-Jan-01 00:00:00.0000 TDB
Step-size       : 7200 minutes
*******************************************************************************
Center geodetic : 0.00000000,0.00000000,0.0000000 {E-lon(deg),Lat(deg),Alt(km)}
Center cylindric: 0.00000000,0.00000000,0.0000000 {E-lon(deg),Dxy(km),Dz(km)}
Center radii    : (undefined)                                                  
Output units    : AU-D                                                         
Output type     : GEOMETRIC cartesian states
Output format   : 2 (position and velocity)
Reference frame : ICRF/J2000.0                                                 
Coordinate systm: Ecliptic and Mean Equinox of Reference Epoch                 
*******************************************************************************
JDTDB
   X     Y     Z
   VX    VY    VZ
*******************************************************************************
$$SOE
2451544.500000000 = A.D. 2000-Jan-01 00:00:00.0000 TDB 
   3.996620729927695E+00  2.929751822244793E+00 -1.017123555493721E-01
   5.366964342942728E-03  7.522778553693940E-03  2.646080392827643E-04
2451549.500000000 = A.D. 2000-Jan-06 00:00:00.0000 TDB 
   3.971063000930724E+00  2.963089690236274E+00 -1.013289608609294E-01
   9.590511870754033E-04 -1.868249309580646E-03 -1.326912114243550E-04
2451554.500000000 = A.D. 2000-Jan-11 00:00:00.0000 TDB 
   3.947770211212108E+00  2.997935079059275E+00 -1.008415096483794E-01
  -9.417117455409525E-03 -2.414154998438248E-03 -3.063541086701410E-04
2451559.500000000 = A.D. 2000-Jan-16 00:00:00.0000 TDB 
   3.926908974080780E+00  3.031155776980879E+00 -1.003587199728810E-01
  -1.473718374849974E-02  6.518018052847600E-03 -6.671151197024082E-05
2451564.500000000 = A.D. 2000-Jan-21 00:00:00.0000 TDB 
   3.905760068716990E+00  3.061145588043691E+00 -9.997884713390483E-02
  -9.186481074318244E-03  1.531261732368656E-02  3.329603992253250E-04
2451569.500000000 = A.D. 2000-Jan-26 00:00:00.0000 TDB 
   3.881630317541002E+00  3.089606327420324E+00 -9.968228611240115E-02
   1.175668636385869E-03  1.430663071855425E-02  4.577165427776082E-04
2451574.500000000 = A.D. 2000-Jan-31 00:00:00.0000 TDB 
   3.854821950839935E+00  3.119697708586411E+00 -9.935228723076353E-02
   5.019344736278170E-03  4.638770152262147E-03  1.762173147589384E-04
2451579.500000000 = A.D. 2000-Feb-05 00:00:00.0000 TDB 
   3.828264985187741E+00  3.152588324641750E+00 -9.890295573182784E-02
  -1.714684153742149E-03 -3.265417680170207E-03 -2.030943413048355E-04
2451584.500000000 = A.D. 2000-Feb-10 00:00:00.0000 TDB 
   3.804339695147029E+00  3.186251465357056E+00 -9.837011657397116E-02
  -1.184972831910860E-02 -1.061371900853760E-03 -2.753775694996907E-04
2451589.500000000 = A.D. 2000-Feb-15 00:00:00.0000 TDB 
   3.782375272767535E+00  3.217628515999932E+00 -9.787241573307183E-02
  -1.460797430973317E-02  8.932933975736541E-03  4.046031115326059E-05
2451594.500000000 = A.D. 2000-Feb-20 00:00:00.0000 TDB 
   3.759331234988416E+00  3.245885422225426E+00 -9.748549820061794E-02
  -6.926686465260168E-03  1.593500226591820E-02  4.083896765640208E-04
2451599.500000000 = A.D. 2000-Feb-25 00:00:00.0000 TDB 
   3.733058196212112E+00  3.273372412675606E+00 -9.715856799109249E-02
   2.819929308541229E-03  1.221596877265178E-02  4.275243153583164E-04
2451604.500000000 = A.D. 2000-Mar-01 00:00:00.0000 TDB 
   3.704679729507669E+00  3.303064113335321E+00 -9.676914016165565E-02
   3.981067386755267E-03  1.851983820643090E-03  8.107408546700258E-05
2451609.500000000 = A.D. 2000-Mar-06 00:00:00.0000 TDB 
   3.677337646616193E+00  3.335310542462421E+00 -9.625724544089903E-02
  -4.602361480024877E-03 -4.001646809316450E-03 -2.531073620343500E-04
2451614.500000000 = A.D. 2000-Mar-11 00:00:00.0000 TDB 
   3.652791843539366E+00  3.367523709261745E+00 -9.568795121636742E-02
  -1.377730156886916E-02  7.918789399757139E-04 -2.190018068774750E-04
2451619.500000000 = A.D. 2000-Mar-16 00:00:00.0000 TDB 
   3.629581787721149E+00  3.396939668372593E+00 -9.518128483774375E-02
  -1.378423638293096E-02  1.113268540786462E-02  1.503974824115143E-04
2451624.500000000 = A.D. 2000-Mar-21 00:00:00.0000 TDB 
   3.604559067179240E+00  3.423556995168564E+00 -9.478492538913957E-02
  -4.520264591402483E-03  1.584307523943963E-02  4.606886063989660E-04
2451629.500000000 = A.D. 2000-Mar-26 00:00:00.0000 TDB 
   3.576273871267621E+00  3.450202993411744E+00 -9.442067146971844E-02
   3.917088098767422E-03  9.671323714257380E-03  3.731002186377798E-04
2451634.500000000 = A.D. 2000-Mar-31 00:00:00.0000 TDB 
   3.546593017489735E+00  3.479456728186040E+00 -9.396895637660516E-02
   2.305920514512050E-03 -6.524691777498389E-04 -1.347817634906996E-05
2451639.500000000 = A.D. 2000-Apr-05 00:00:00.0000 TDB 
   3.518642554858029E+00  3.510827743699990E+00 -9.339987982009099E-02
  -7.519369066647615E-03 -4.040581561884380E-03 -2.787531602125685E-04
2451644.500000000 = A.D. 2000-Apr-10 00:00:00.0000 TDB 
   3.493436886782655E+00  3.541347718181901E+00 -9.280319875294805E-02
  -1.508192643594670E-02  2.994331522790862E-03 -1.409215294914863E-04
2451649.500000000 = A.D. 2000-Apr-15 00:00:00.0000 TDB 
   3.468835058387481E+00  3.568742294938093E+00 -9.229175687905301E-02
  -1.234135328264764E-02  1.294495785664466E-02  2.558095998914164E-04
2451654.500000000 = A.D. 2000-Apr-20 00:00:00.0000 TDB 
   3.441801415141067E+00  3.593846628872807E+00 -9.188186501451447E-02
  -2.156277023265962E-03  1.502974984016443E-02  4.867347380323665E-04
2451659.500000000 = A.D. 2000-Apr-25 00:00:00.0000 TDB 
   3.411685249083502E+00  3.619763998743489E+00 -9.147356101373223E-02
   4.367510030032650E-03  6.836935691865982E-03  2.987831355437491E-04
2451664.500000000 = A.D. 2000-Apr-30 00:00:00.0000 TDB 
   3.380970308104668E+00  3.648489593810848E+00 -9.095876736379652E-02
   9.421271663187544E-05 -2.715451620375708E-03 -1.003325476897505E-04
2451669.500000000 = A.D. 2000-May-05 00:00:00.0000 TDB 
   3.352543627718066E+00  3.678729264316447E+00 -9.033967856236978E-02
  -1.027257561394565E-02 -3.395154241340150E-03 -2.776770480718925E-04
2451674.500000000 = A.D. 2000-May-10 00:00:00.0000 TDB 
   3.326597122352748E+00  3.707350007536537E+00 -8.972420144061750E-02
  -1.568803596460042E-02  5.374984021848463E-03 -4.616184628834296E-05
2451679.500000000 = A.D. 2000-May-15 00:00:00.0000 TDB 
   3.300465655427662E+00  3.732723657871174E+00 -8.921013542910373E-02
  -1.040301089549931E-02  1.422423091942449E-02  3.496275869488574E-04
2451684.500000000 = A.D. 2000-May-20 00:00:00.0000 TDB 
   3.271444240966829E+00  3.756460842597632E+00 -8.878134416888746E-02
  -1.996818006898467E-05  1.353408313740355E-02  4.851521682027510E-04
2451689.500000000 = A.D. 2000-May-25 00:00:00.0000 TDB 
   3.239723238488363E+00  3.781726066344018E+00 -8.832311348631350E-02
   4.125767883808165E-03  3.897082924665313E-03  2.104015212993055E-04
2451694.500000000 = A.D. 2000-May-30 00:00:00.0000 TDB 
   3.208228418622113E+00  3.809786282368857E+00 -8.774657413925120E-02
  -2.513875778092031E-03 -4.205317810728781E-03 -1.727708874232470E-04
2451699.500000000 = A.D. 2000-Jun-04 00:00:00.0000 TDB 
   3.179405276553179E+00  3.838630968186369E+00 -8.708591973745994E-02
  -1.268537532896834E-02 -2.128723881536770E-03 -2.495705100832367E-04
2451704.500000000 = A.D. 2000-Jun-09 00:00:00.0000 TDB 
   3.152605718725229E+00  3.865190704144403E+00 -8.645937299407420E-02
  -1.556904837512769E-02  7.744581360519177E-03  5.889772858947583E-05
2451709.500000000 = A.D. 2000-Jun-14 00:00:00.0000 TDB 
   3.124830793468006E+00  3.888600067643728E+00 -8.594270303405438E-02
  -8.121046315563164E-03  1.486000769798139E-02  4.256317513005723E-04
2451714.500000000 = A.D. 2000-Jun-19 00:00:00.0000 TDB 
   3.093902039688667E+00  3.911124153198517E+00 -8.548874107620745E-02
   1.720326073540388E-03  1.144579634160663E-02  4.565724999584276E-04
2451719.500000000 = A.D. 2000-Jun-24 00:00:00.0000 TDB 
   3.060834912354452E+00  3.935767940983423E+00 -8.497608803584634E-02
   3.190469966972898E-03  1.043602713399175E-03  1.147048496138449E-04
2451724.500000000 = A.D. 2000-Jun-29 00:00:00.0000 TDB 
   3.028787562724537E+00  3.962982487050025E+00 -8.434129584070656E-02
  -5.349501586405495E-03 -5.036896850077828E-03 -2.253153133166438E-04
2451729.500000000 = A.D. 2000-Jul-04 00:00:00.0000 TDB 
   2.999593056781254E+00  3.990177301181022E+00 -8.364825253913349E-02
  -1.460080293361020E-02 -3.519670017824914E-04 -1.960702581363916E-04
2451734.500000000 = A.D. 2000-Jul-09 00:00:00.0000 TDB 
   2.971809872933160E+00  4.014566925428185E+00 -8.301698503403805E-02
  -1.474844359332169E-02  9.917969276345280E-03  1.672757296633634E-04
2451739.500000000 = A.D. 2000-Jul-14 00:00:00.0000 TDB 
   2.942315777532859E+00  4.036115422564698E+00 -8.249574913467023E-02
  -5.675654992515723E-03  1.479032611269663E-02  4.788953835252116E-04
2451744.500000000 = A.D. 2000-Jul-19 00:00:00.0000 TDB 
   2.909614562040326E+00  4.057575815377188E+00 -8.200992745035868E-02
   2.923220593046863E-03  8.891589746961462E-03  4.033735958327265E-04
2451749.500000000 = A.D. 2000-Jul-24 00:00:00.0000 TDB 
   2.875477504703168E+00  4.081577392101141E+00 -8.144014981633055E-02
   1.613258650814972E-03 -1.541013614686345E-03  1.890691245659158E-05
